STARLINK-1608_new
1 16146C 20057AF  21326.15435361  .00003208  00000-0  21488-3 0  3260
2 16146  53.0507 158.0543 0001892  88.3245 301.4470 15.06405542    11
STARLINK-1608_old
1 26146C 20057AF  21325.15938402  .00002870  00000-0  19230-3 0  3258
2 26146  53.0502 162.5214 0001873  87.5678 303.4445 15.06400090    18
